#dP2023  1 19  0  0  0.00000000      96 __u+U ITR00 FIT  IAC
## 2245 345600.00000000   900.00000000 59963 0.0000000000000
+  118   C06C07C08C09C10C11C12C13C14C16C19C20C21C22C23C24C25
+        C26C27C28C29C30C32C33C34C35C36C37C38C39C40C41C42C43
+        C44C45C46E01E02E03E04E05E07E08E09E10E11E12E13E14E15
+        E18E19E21E24E25E26E27E30E31E33E34G01G02G03G04G05G06
+        G07G08G09G10G11G12G13G14G15G16G17G18G19G20G21G22G23
+        G24G25G26G27G29G30G31G32J02J03J04R01R02R03R04R05R07
+        R08R09R11R12R13R14R15R16R17R18R19R20R21R22R24R25  0
++         9  8  8  9  7  0  6  8  9  9  7  8  8  6  7  7  6
++         7  7  8  8  6  6  7  5  6  6  7  9  9  9  7  6  7
++         5  6  7  6  6  7  6  5  7  7  7  6  7  6  6  6  4
++         6  6  6  5  6  5  6  6  6  5  7  5  6  5  6  6  6
++         7  6  4  5  6  4  5  6  5  5  6  6  6  5  6  6  5
++         5  6  5  7  5  6  6  6  6  8  8  9  6  6  6  6  5
++         7  5  6  6  7  6  7  7  7  6  5  8  6  4  8  7  0
%c M  cc GPS ccc cccc cccc cccc cccc ccccc ccccc ccccc ccccc
%c cc cc ccc ccc cccc cccc cccc cccc ccccc ccccc ccccc ccccc
%f  0.0000000  0.000000000  0.00000000000  0.000000000000000
%f  0.0000000  0.000000000  0.00000000000  0.000000000000000
%i    0    0    0    0      0      0      0      0         0
%i    0    0    0    0      0      0      0      0         0
/* INFORMATION & ANALYSIS CENTER (IAC)      ULTRA-RAPID DATA
/* S/V CLOCKS ARE ALIGNED TO GNSS TIME                      
/* G:C1WC2W R:C1PC2P E:C1XC5X C:C2IC6I J:C1CC2S             
/* PCV:IGS20_2239 OL/AL:FES2004  NONE     YN ORB:CoN CLK:CoN
*  2023 01 19 12 45  0.00000000
PC06  -1827.164891  28992.080927 -30459.669335   -186.498060
PC07 -15489.385845  29783.901654  25461.289678     -6.442989
PC08  -9761.021905  41100.076987   1354.807043    527.802453
PC09   5583.285542  32601.232904 -25452.243158    325.022250
PC10  -8586.478003  29819.020976  28648.801258     29.150119
PC11  22170.869783  16955.250201    621.296076 999999.999999
PC12   9435.724356  20378.285707  16612.409235    405.723618
PC13  -6162.711580  41749.489842  -2880.981259    187.057319
PC14  18288.182443   6529.698090 -20041.742968    384.842969
PC16  -2809.559056  27740.270554 -31371.951428     78.622872
PC19 -24161.072218    933.480370  13946.688855   -896.452359
PC20 -11032.026544 -11908.568488  22709.379442    760.862595
PC21  -9789.898298  18521.326082 -18411.311789   -915.817061
PC22 -23984.368038  13846.684499  -3347.260352   -677.660711
PC23  14717.908054 -14695.262058  18596.147468   -872.133536
PC24   6816.750844  24134.358947  12253.249255   -521.181800
PC25  15826.997909   5122.159593  22394.879580     57.964353
PC26  -4014.914013  27448.099824  -3241.959501    -66.534183
PC27   -648.046340 -18368.763923 -21019.084980     83.874489
PC28  16153.478048  -6964.595441 -21656.764371     60.654122
PC29 -24911.897518  -8854.259876   8936.166500     69.499068
PC30 -17869.719996 -19372.925243  -9214.143085      1.255778
PC32   9722.696023 -18630.342071  18379.925803   -645.786163
PC33  24134.794641  -1022.710783 -13975.517671   -879.469306
PC34  18687.318404  19060.096372   8087.440400     87.070256
PC35 -17032.656544   6490.631847  21135.901641    608.501995
PC36 -15568.552551  -6222.527469 -22291.613708   -684.021079
PC37   5535.678913 -26954.180662   4554.546642   -843.377638
PC38 -13925.651114  38664.186240   9788.828447     52.974282
PC39  -8568.207848  23587.457843 -33819.519597     -1.494497
PC40 -22602.407156  24008.424173  26130.708270    -12.939988
PC41  24166.231552 -13676.994933   2819.386995   -511.579003
PC42   9827.260582  12636.584027 -22815.087208   -886.640380
PC43  24924.121343   9465.744593  -8205.094123      2.841300
PC44   1004.507305  18331.983391  20996.801343    182.120427
PC45 -14511.179087  15123.418727 -18446.233152    -49.517769
PC46  -7877.659110 -22931.109941 -13784.627117    -27.508423
PE01   7311.315220  16879.709744  23190.103940   -596.423014
PE02  -7659.980030 -16549.399101 -23317.174143     15.634596
PE03 -19566.971947 -14091.652682  17159.004585   -641.464275
PE04  29415.858419   3248.762855   -400.590821    -39.542107
PE05   2034.578490 -16900.175070  24215.835514   -103.688102
PE07 -22191.886124   9757.397635 -16980.705517    -16.353940
PE08 -29413.805947  -3252.921237    510.213488    -21.984569
PE09  22322.372549  -9593.589358  16911.665629   -805.551408
PE10  16454.930264  -2004.392757 -24523.438914   -506.190652
PE11  11015.251167 -13389.507840 -23995.611735    526.368040
PE12  18897.630625   8566.030260 -21099.005841   -389.933901
PE13 -11494.967789  12466.104393  24269.574169    429.825762
PE14  27382.116898  -7259.046453 -15802.111985    117.787734
PE15 -18905.417839  -8922.066631  20970.256325    693.123609
PE18 -19741.774706   5141.574556  11627.622616   -491.282051
PE19  17075.778945  15002.734090 -18952.889990  -3448.530495
PE21  -8226.308069  25650.150482  12279.688631   -507.154085
PE24  20694.409370 -19854.505942   7246.151249  -1066.549460
PE25   8469.209978 -25681.788404 -12019.608066   -597.518786
PE26   3057.267764  26636.329355  12553.470753  -1846.873379
PE27 -20349.275396  20517.600442  -6460.011947   -491.436759
PE30 -20192.986370   2552.726723 -21513.644141  -1172.812547
PE31  20363.879003  -3334.861722  21219.819725   -513.728864
PE33  15092.226084  24898.668776  -5297.989557   -453.911661
PE34 -15222.447901 -24785.718423   5474.602555    -25.630747
PG01 -15504.368433  -1958.576841  21223.122942    222.533351
PG02  14762.973298  -3003.588864 -21225.659289   -626.370650
PG03 -20058.416101   8199.480816  15162.409816   -371.210834
PG04 -25456.086265    327.684117  -7765.388532    -45.583254
PG05  14146.785269   6304.615458 -21755.862091   -112.582860
PG06   4877.960611  25329.729867   6196.812711    560.840298
PG07 -10054.801433  13729.903787 -19836.354270    256.215387
PG08 -25644.437467  -6538.501821  -4083.340225   -104.326747
PG09 -18716.869672   9110.611531 -16601.114901   -233.765604
PG10   8964.931521 -22424.936881  10855.780798    -21.055849
PG11  12157.200572  22589.775521  -6942.121945    -82.412926
PG12  20359.841152  -5594.889284  15772.526170   -329.954588
PG13  20994.043999  13466.134254  -9578.891502    461.955257
PG14 -11673.645892  22256.601512   8402.639490    -46.202105
PG15  26134.639889   3967.757750  -4264.133972      5.954802
PG16 -11265.327715 -10261.825470 -22054.410098   -523.366022
PG17  -5812.513596  14067.371514  22210.448250    694.388267
PG18   7812.791047 -16777.359916 -18992.443304   -105.309084
PG19   6919.649902  15959.290745  19919.904581    266.173327
PG20   6299.076796  17019.185772 -19435.318510    456.087003
PG21 -18261.437803 -10079.167738  17484.439503    153.539639
PG22 -10374.550246 -16181.870209  18831.730204    409.145893
PG23  16473.299154 -20730.333020   -368.601487      2.957677
PG24  17889.295442   5557.755264  18631.800969    -36.725632
PG25  19951.264746 -14707.303446   8833.066837    412.657599
PG26  -1596.802254 -19841.117614 -17527.805177    240.518240
PG27 -19057.155728 -12824.495922 -13915.839285    123.250429
PG29  21279.754929  -5215.548385 -15112.232015   -581.308405
PG30  -1415.007660  23230.584327 -12465.121481   -532.863206
PG31  -5801.368102 -25327.393265   3982.245573   -206.779886
PG32   1592.024481 -15255.141800  21848.267078   -369.025483
PJ02 -28186.519123  30901.773400   -670.351717     -0.620798
PJ03 -24908.946790  23701.145092  29530.691484     -0.051194
PJ04 -32808.601120  25129.644166  -3061.530021    119.440750
PR01  10093.632712 -12727.497729  19671.487163     21.521183
PR02  -9840.476722  -8193.700704  22116.708143    -23.308243
PR03 -23011.467562    637.741419  11100.693405     71.106205
PR04 -23237.606028   8762.280503  -5833.159514    172.804162
PR05 -10886.098837  12167.927973 -19597.892950    106.434776
PR07  23271.272386  -1077.155976 -10287.825794     48.293017
PR08  23054.486402  -9024.286200   6125.784336    -69.097972
PR09   3646.053025  19187.601690  16377.725055     99.405517
PR11  12116.776597 -14451.571896  17187.112872      4.851564
PR12   6516.395548 -24650.113154    -54.772895     24.427210
PR13  -2375.354204 -20351.815014 -15209.417901    -31.107082
PR14 -10783.137988  -2793.916888 -22942.294622     24.249004
PR15 -12224.342625  15271.999680 -16359.283626     91.617610
PR16  -6451.009052  24662.903563   -274.990671     10.162462
PR17 -19212.691785 -11932.312032  11776.430764    597.177203
PR18 -12498.001419   1419.029048  22221.572996     62.561666
PR19   -806.750874  13413.777410  21686.800946   -218.768321
PR20  14315.126823  20060.817595   6506.812016    -86.141843
PR21  18891.634263  10951.224516 -13198.230567   -366.632276
PR22  12270.917247  -1991.529543 -22240.388161     67.299723
PR24 -15224.213176 -19629.174000  -5751.252287    140.704833
PR25  18773.513866  13025.560529 -11347.950335     52.037094
EOF
